[{"OBJECT_NAME":"STARLINK-31904","OBJECT_ID":"2024-084D","EPOCH":"2026-03-09T07:20:14.144928","MEAN_MOTION":15.27572673,"ECCENTRICITY":3.895e-5,"INCLINATION":43.0027,"RA_OF_ASC_NODE":44.0346,"ARG_OF_PERICENTER":294.2534,"MEAN_ANOMALY":65.8277,"EPHEMERIS_TYPE":0,"CLASSIFICATION_TYPE":"U","NORAD_CAT_ID":59657,"ELEMENT_SET_NO":999,"REV_AT_EPOCH":10431,"BSTAR":-6.933349e-5,"MEAN_MOTION_DOT":-2.169e-5,"MEAN_MOTION_DDOT":0},{"OBJECT_NAME":"HAWK-11A","OBJECT_ID":"2024-247F","EPOCH":"2026-03-09T12:17:43.893312","MEAN_MOTION":15.28849427,"ECCENTRICITY":0.00054663,"INCLINATION":44.9941,"RA_OF_ASC_NODE":114.3328,"ARG_OF_PERICENTER":327.3713,"MEAN_ANOMALY":32.6832,"EPHEMERIS_TYPE":0,"CLASSIFICATION_TYPE":"U","NORAD_CAT_ID":62382,"ELEMENT_SET_NO":999,"REV_AT_EPOCH":6774,"BSTAR":0.00034106017,"MEAN_MOTION_DOT":9.457e-5,"MEAN_MOTION_DDOT":0}]
