STARLINK-31904          
1 59657U 24084D   26068.30571927 -.00002169  00000+0 -69333-4 0  9993
2 59657  43.0027  44.0346 0000389 294.2534  65.8277 15.27572673104319
HAWK-11A                
1 62382U 24247F   26068.51231358  .00009457  00000+0  34106-3 0  9991
2 62382  44.9941 114.3328 0005466 327.3713  32.6832 15.28849427 67741
